{"type": "FeatureCollection", "features": [ {"type": "Feature", "properties": {"norad_id": 40664, "name": "SKY MEXICO-1", "group": "intelsat", "lat": 0.010419622145857491, "lon": 174.07897642726482, "alt_km": 35791.686291175654, "timestamp": "2025-12-26T10:30:49.927410+00:00", "meta": {"OBJECT_NAME": "SKY MEXICO-1", "OBJECT_ID": "2015-026B", "EPOCH": "2025-12-25T22:57:48.561120", "MEAN_MOTION": 1.00269655, "ECCENTRICITY": 0.0002599, "INCLINATION": 0.0153, "RA_OF_ASC_NODE": 12.1574, "ARG_OF_PERICENTER": 278.8916, "MEAN_ANOMALY": 69.3374, "EPHEMERIS_TYPE": 0, "CLASSIFICATION_TYPE": "U", "NORAD_CAT_ID": 40664, "ELEMENT_SET_NO": 999, "REV_AT_EPOCH": 3871, "BSTAR": 0, "MEAN_MOTION_DOT": -2.13e-06, "MEAN_MOTION_DDOT": 0}, "tle": {"line1": "1 40664U 15026B   25359.95681205 -.00000213  00000+0  00000+0 0  9999", "line2": "2 40664   0.0153  12.1574 0002599 278.8916  69.3374  1.00269655 38712"}}, "geometry": {"type": "Point", "coordinates": [174.07897642726482, 0.010419622145857491]}}, {"type": "Feature", "properties": {"norad_id": 40874, "name": "INTELSAT 34 (IS-34)", "group": "intelsat", "lat": -0.013486850827871051, "lon": -162.62144978200604, "alt_km": 35785.00201279681, "timestamp": "2025-12-26T10:30:49.927422+00:00", "meta": {"OBJECT_NAME": "INTELSAT 34 (IS-34)", "OBJECT_ID": "2015-039A", "EPOCH": "2025-12-26T01:50:17.564352", "MEAN_MOTION": 1.00269247, "ECCENTRICITY": 5.15e-05, "INCLINATION": 0.0147, "RA_OF_ASC_NODE": 340.5004, "ARG_OF_PERICENTER": 185.0401, "MEAN_ANOMALY": 261.3543, "EPHEMERIS_TYPE": 0, "CLASSIFICATION_TYPE": "U", "NORAD_CAT_ID": 40874, "ELEMENT_SET_NO": 999, "REV_AT_EPOCH": 3788, "BSTAR": 0, "MEAN_MOTION_DOT": -2.64e-06, "MEAN_MOTION_DDOT": 0}, "tle": {"line1": "1 40874U 15039A   25360.07659218 -.00000264  00000+0  00000+0 0  9996", "line2": "2 40874   0.0147 340.5004 0000515 185.0401 261.3543  1.00269247 37884"}}, "geometry": {"type": "Point", "coordinates": [-162.62144978200604, -0.013486850827871051]}}, {"type": "Feature", "properties": {"norad_id": 41581, "name": "INTELSAT 31 (IS-31)", "group": "intelsat", "lat": -0.0036413406265476504, "lon": 157.78771201167322, "alt_km": 35781.33644904948, "timestamp": "2025-12-26T10:30:49.927433+00:00", "meta": {"OBJECT_NAME": "INTELSAT 31 (IS-31)", "OBJECT_ID": "2016-035A", "EPOCH": "2025-12-23T19:31:44.703840", "MEAN_MOTION": 1.00269658, "ECCENTRICITY": 0.0001926, "INCLINATION": 0.0283, "RA_OF_ASC_NODE": 262.055, "ARG_OF_PERICENTER": 303.365, "MEAN_ANOMALY": 85.0534, "EPHEMERIS_TYPE": 0, "CLASSIFICATION_TYPE": "U", "NORAD_CAT_ID": 41581, "ELEMENT_SET_NO": 999, "REV_AT_EPOCH": 3492, "BSTAR": 0, "MEAN_MOTION_DOT": -1.29e-06, "MEAN_MOTION_DDOT": 0}, "tle": {"line1": "1 41581U 16035A   25357.81371185 -.00000129  00000+0  00000+0 0  9991", "line2": "2 41581   0.0283 262.0550 0001926 303.3650  85.0534  1.00269658 34922"}}, "geometry": {"type": "Point", "coordinates": [157.78771201167322, -0.0036413406265476504]}}, {"type": "Feature", "properties": {"norad_id": 41747, "name": "INTELSAT 36 (IS-36)", "group": "intelsat", "lat": -0.024686761187512257, "lon": -38.62667238297753, "alt_km": 35781.20214684416, "timestamp": "2025-12-26T10:30:49.927446+00:00", "meta": {"OBJECT_NAME": "INTELSAT 36 (IS-36)", "OBJECT_ID": "2016-053A", "EPOCH": "2025-12-24T23:41:40.191072", "MEAN_MOTION": 1.00271078, "ECCENTRICITY": 0.00011962, "INCLINATION": 0.0114, "RA_OF_ASC_NODE": 13.9545, "ARG_OF_PERICENTER": 310.844, "MEAN_ANOMALY": 192.8649, "EPHEMERIS_TYPE": 0, "CLASSIFICATION_TYPE": "U", "NORAD_CAT_ID": 41747, "ELEMENT_SET_NO": 999, "REV_AT_EPOCH": 3420, "BSTAR": 0, "MEAN_MOTION_DOT": -3e-08, "MEAN_MOTION_DDOT": 0}, "tle": {"line1": "1 41747U 16053A   25358.98727073 -.00000003  00000+0  00000+0 0  9996", "line2": "2 41747   0.0114  13.9545 0001196 310.8440 192.8649  1.00271078 34209"}}, "geometry": {"type": "Point", "coordinates": [-38.62667238297753, -0.024686761187512257]}}, {"type": "Feature", "properties": {"norad_id": 41945, "name": "INTELSAT 32E (IS-32E)", "group": "intelsat", "lat": 0.014163023639604687, "lon": -150.30384592371973, "alt_km": 35789.33851285956, "timestamp": "2025-12-26T10:30:49.927457+00:00", "meta": {"OBJECT_NAME": "INTELSAT 32E (IS-32E)", "OBJECT_ID": "2017-007B", "EPOCH": "2025-12-25T09:26:14.207136", "MEAN_MOTION": 1.00269163, "ECCENTRICITY": 5.79e-05, "INCLINATION": 0.0256, "RA_OF_ASC_NODE": 72.3331, "ARG_OF_PERICENTER": 310.1957, "MEAN_ANOMALY": 170.0068, "EPHEMERIS_TYPE": 0, "CLASSIFICATION_TYPE": "U", "NORAD_CAT_ID": 41945, "ELEMENT_SET_NO": 999, "REV_AT_EPOCH": 3248, "BSTAR": 0, "MEAN_MOTION_DOT": -2.48e-06, "MEAN_MOTION_DDOT": 0}, "tle": {"line1": "1 41945U 17007B   25359.39321999 -.00000248  00000+0  00000+0 0  9990", "line2": "2 41945   0.0256  72.3331 0000579 310.1957 170.0068  1.00269163 32481"}}, "geometry": {"type": "Point", "coordinates": [-150.30384592371973, 0.014163023639604687]}}, {"type": "Feature", "properties": {"norad_id": 42818, "name": "INTELSAT 35E (IS-35E)", "group": "intelsat", "lat": -0.011472428008009437, "lon": -141.6625615227443, "alt_km": 35782.83235099529, "timestamp": "2025-12-26T10:30:49.927469+00:00", "meta": {"OBJECT_NAME": "INTELSAT 35E (IS-35E)", "OBJECT_ID": "2017-041A", "EPOCH": "2025-12-24T19:47:02.663232", "MEAN_MOTION": 1.00269135, "ECCENTRICITY": 0.0001994, "INCLINATION": 0.0182, "RA_OF_ASC_NODE": 26.5073, "ARG_OF_PERICENTER": 252.5399, "MEAN_ANOMALY": 76.7961, "EPHEMERIS_TYPE": 0, "CLASSIFICATION_TYPE": "U", "NORAD_CAT_ID": 42818, "ELEMENT_SET_NO": 999, "REV_AT_EPOCH": 3106, "BSTAR": 0, "MEAN_MOTION_DOT": -2.17e-06, "MEAN_MOTION_DDOT": 0}, "tle": {"line1": "1 42818U 17041A   25358.82433638 -.00000217  00000+0  00000+0 0  9995", "line2": "2 42818   0.0182  26.5073 0001994 252.5399  76.7961  1.00269135 31060"}}, "geometry": {"type": "Point", "coordinates": [-141.6625615227443, -0.011472428008009437]}}, {"type": "Feature", "properties": {"norad_id": 42950, "name": "INTELSAT 37E (IS-37E)", "group": "intelsat", "lat": -0.0014158530421315178, "lon": -125.12180159200871, "alt_km": 35774.61110892315, "timestamp": "2025-12-26T10:30:49.927481+00:00", "meta": {"OBJECT_NAME": "INTELSAT 37E (IS-37E)", "OBJECT_ID": "2017-059A", "EPOCH": "2025-12-26T00:08:38.731776", "MEAN_MOTION": 1.00271502, "ECCENTRICITY": 0.0003112, "INCLINATION": 0.0027, "RA_OF_ASC_NODE": 104.4727, "ARG_OF_PERICENTER": 158.8856, "MEAN_ANOMALY": 175.572, "EPHEMERIS_TYPE": 0, "CLASSIFICATION_TYPE": "U", "NORAD_CAT_ID": 42950, "ELEMENT_SET_NO": 999, "REV_AT_EPOCH": 3032, "BSTAR": 0, "MEAN_MOTION_DOT": -1.19e-06, "MEAN_MOTION_DDOT": 0}, "tle": {"line1": "1 42950U 17059A   25360.00600384 -.00000119  00000+0  00000+0 0  9999", "line2": "2 42950   0.0027 104.4727 0003112 158.8856 175.5720  1.00271502 30327"}}, "geometry": {"type": "Point", "coordinates": [-125.12180159200871, -0.0014158530421315178]}}, {"type": "Feature", "properties": {"norad_id": 43632, "name": "AZERSPACE 2 (IS-38)", "group": "intelsat", "lat": -0.03617901728102196, "lon": -62.008869406615304, "alt_km": 35780.741469640765, "timestamp": "2025-12-26T10:30:49.927492+00:00", "meta": {"OBJECT_NAME": "AZERSPACE 2 (IS-38)", "OBJECT_ID": "2018-074A", "EPOCH": "2025-12-25T14:59:23.620416", "MEAN_MOTION": 1.00271088, "ECCENTRICITY": 0.0001362, "INCLINATION": 0.0173, "RA_OF_ASC_NODE": 17.3718, "ARG_OF_PERICENTER": 261.2913, "MEAN_ANOMALY": 85.6698, "EPHEMERIS_TYPE": 0, "CLASSIFICATION_TYPE": "U", "NORAD_CAT_ID": 43632, "ELEMENT_SET_NO": 999, "REV_AT_EPOCH": 2670, "BSTAR": 0, "MEAN_MOTION_DOT": 1.58e-06, "MEAN_MOTION_DDOT": 0}, "tle": {"line1": "1 43632U 18074A   25359.62457894  .00000158  00000+0  00000+0 0  9999", "line2": "2 43632   0.0173  17.3718 0001362 261.2913  85.6698  1.00271088 26708"}}, "geometry": {"type": "Point", "coordinates": [-62.008869406615304, -0.03617901728102196]}}, {"type": "Feature", "properties": {"norad_id": 43633, "name": "HORIZONS-3E", "group": "intelsat", "lat": -0.0037083475562901275, "lon": 61.89208141752771, "alt_km": 35787.572214841966, "timestamp": "2025-12-26T10:30:49.927504+00:00", "meta": {"OBJECT_NAME": "HORIZONS-3E", "OBJECT_ID": "2018-074B", "EPOCH": "2025-12-25T20:43:05.708064", "MEAN_MOTION": 1.00272244, "ECCENTRICITY": 7.84e-05, "INCLINATION": 0.0134, "RA_OF_ASC_NODE": 214.3727, "ARG_OF_PERICENTER": 88.1399, "MEAN_ANOMALY": 271.8768, "EPHEMERIS_TYPE": 0, "CLASSIFICATION_TYPE": "U", "NORAD_CAT_ID": 43633, "ELEMENT_SET_NO": 999, "REV_AT_EPOCH": 2660, "BSTAR": 0, "MEAN_MOTION_DOT": 0, "MEAN_MOTION_DDOT": 0}, "tle": {"line1": "1 43633U 18074B   25359.86326051  .00000000  00000+0  00000+0 0  9992", "line2": "2 43633   0.0134 214.3727 0000784  88.1399 271.8768  1.00272244 26607"}}, "geometry": {"type": "Point", "coordinates": [61.89208141752771, -0.0037083475562901275]}}, {"type": "Feature", "properties": {"norad_id": 44333, "name": "AT&T T-16", "group": "intelsat", "lat": 0.03421548291053379, "lon": 152.02176659320145, "alt_km": 35783.0988938954, "timestamp": "2025-12-26T10:30:49.927516+00:00", "meta": {"OBJECT_NAME": "AT&T T-16", "OBJECT_ID": "2019-034A", "EPOCH": "2025-12-25T10:42:38.666304", "MEAN_MOTION": 1.00270684, "ECCENTRICITY": 7.98e-05, "INCLINATION": 0.0229, "RA_OF_ASC_NODE": 69.9127, "ARG_OF_PERICENTER": 71.5572, "MEAN_ANOMALY": 12.5365, "EPHEMERIS_TYPE": 0, "CLASSIFICATION_TYPE": "U", "NORAD_CAT_ID": 44333, "ELEMENT_SET_NO": 999, "REV_AT_EPOCH": 2389, "BSTAR": 0, "MEAN_MOTION_DOT": -9.4e-07, "MEAN_MOTION_DDOT": 0}, "tle": {"line1": "1 44333U 19034A   25359.44628086 -.00000094  00000+0  00000+0 0  9998", "line2": "2 44333   0.0229  69.9127 0000798  71.5572  12.5365  1.00270684 23899"}}, "geometry": {"type": "Point", "coordinates": [152.02176659320145, 0.03421548291053379]}}]}